{"type": "FeatureCollection", "features": [{"type": "Feature", "properties": {"NAME": "TANZANIA"}, "geometry": {"type": "Polygon", "coordinates": [[[33.903711, -0.95], [34.07262, -1.05982], [37.69869, -3.09699], [37.7669, -3.67712], [39.20222, -4.67677], [38.74054, -5.90895], [38.79977, -6.47566], [39.44, -6.84], [39.47, -7.1], [39.19469, -7.7039], [39.25203, -8.00781], [39.18652, -8.48551], [39.53574, -9.11237], [39.9496, -10.0984], [40.316586, -10.317098], [40.31659, -10.3171], [39.521, -10.89688], [38.427557, -11.285202], [37.82764, -11.26879], [37.47129, -11.56876], [36.775151, -11.594537], [36.514082, -11.720938], [35.312398, -11.439146], [34.559989, -11.52002], [34.28, -10.16], [33.940838, -9.693674], [33.73972, -9.41715], [32.759375, -9.230599], [32.191865, -8.930359], [31.556348, -8.762049], [31.157751, -8.594579], [30.74001, -8.340006], [30.740015, -8.340007], [30.199997, -7.079981], [29.620032, -6.520015], [29.419993, -5.939999], [29.519987, -5.419979], [29.339998, -4.499983], [29.753512, -4.452389], [30.11632, -4.09012], [30.50554, -3.56858], [30.75224, -3.35931], [30.74301, -3.03431], [30.52766, -2.80762], [30.469674, -2.413855], [30.46967, -2.41383], [30.758309, -2.28725], [30.816135, -1.698914], [30.419105, -1.134659], [30.76986, -1.01455], [31.86617, -1.02736], [33.903711, -0.95]]]}}, {"type": "Feature", "properties": {"NAME": "CANADA"}, "geometry": {"type": "MultiPolygon", "coordinates": [[[[-122.84, 49.0], [-122.97421, 49.002538], [-124.91024, 49.98456], [-125.62461, 50.41656], [-127.43561, 50.83061], [-127.99276, 51.71583], [-127.85032, 52.32961], [-129.12979, 52.75538], [-129.30523, 53.56159], [-130.51497, 54.28757], [-130.536109, 54.802754], [-130.53611, 54.80278], [-129.98, 55.285], [-130.00778, 55.91583], [-131.70781, 56.55212], [-132.73042, 57.69289], [-133.35556, 58.41028], [-134.27111, 58.86111], [-134.945, 59.27056], [-135.47583, 59.78778], [-136.47972, 59.46389], [-137.4525, 58.905], [-138.34089, 59.56211], [-139.039, 60.0], [-140.013, 60.27682], [-140.99778, 60.30639], [-140.9925, 66.00003], [-140.986, 69.712], [-140.985988, 69.711998], [-139.12052, 69.47102], [-137.54636, 68.99002], [-136.50358, 68.89804], [-135.62576, 69.31512], [-134.41464, 69.62743], [-132.92925, 69.50534], [-131.43136, 69.94451], [-129.79471, 70.19369], [-129.10773, 69.77927], [-128.36156, 70.01286], [-128.13817, 70.48384], [-127.44712, 70.37721], [-125.75632, 69.48058], [-124.42483, 70.1584], [-124.28968, 69.39969], [-123.06108, 69.56372], [-122.6835, 69.85553], [-121.47226, 69.79778], [-119.94288, 69.37786], [-117.60268, 69.01128], [-116.22643, 68.84151], [-115.2469, 68.90591], [-113.89794, 68.3989], [-115.30489, 67.90261], [-113.49727, 67.68815], [-110.798, 67.80612], [-109.94619, 67.98104], [-108.8802, 67.38144], [-107.79239, 67.88736], [-108.81299, 68.31164], [-108.16721, 68.65392], [-106.95, 68.7], [-106.15, 68.8], [-105.34282, 68.56122], [-104.33791, 68.018], [-103.22115, 68.09775], [-101.45433, 67.64689], [-99.90195, 67.80566], [-98.4432, 67.78165], [-98.5586, 68.40394], [-97.66948, 68.57864], [-96.11991, 68.23939], [-96.12588, 67.29338], [-95.48943, 68.0907], [-94.685, 68.06383], [-94.23282, 69.06903], [-95.30408, 69.68571], [-96.47131, 70.08976], [-96.39115, 71.19482], [-95.2088, 71.92053], [-93.88997, 71.76015], [-92.87818, 71.31869], [-91.51964, 70.19129], [-92.40692, 69.69997], [-90.5471, 69.49766], [-90.55151, 68.47499], [-89.21515, 69.25873], [-88.01966, 68.61508], [-88.31749, 67.87338], [-87.35017, 67.19872], [-86.30607, 67.92146], [-85.57664, 68.78456], [-85.52197, 69.88211], [-84.10081, 69.80539], [-82.62258, 69.65826], [-81.28043, 69.16202], [-81.2202, 68.66567], [-81.96436, 68.13253], [-81.25928, 67.59716], [-81.38653, 67.11078], [-83.34456, 66.41154], [-84.73542, 66.2573], [-85.76943, 66.55833], [-86.0676, 66.05625], [-87.03143, 65.21297], [-87.32324, 64.77563], [-88.48296, 64.09897], [-89.91444, 64.03273], [-90.70398, 63.61017], [-90.77004, 62.96021], [-91.93342, 62.83508], [-93.15698, 62.02469], [-94.24153, 60.89865], [-94.62931, 60.11021], [-94.6846, 58.94882], [-93.21502, 58.78212], [-92.76462, 57.84571], [-92.29703, 57.08709], [-90.89769, 57.28468], [-89.03953, 56.85172], [-88.03978, 56.47162], [-87.32421, 55.99914], [-86.07121, 55.72383], [-85.01181, 55.3026], [-83.36055, 55.24489], [-82.27285, 55.14832], [-82.4362, 54.28227], [-82.12502, 53.27703], [-81.40075, 52.15788], [-79.91289, 51.20842], [-79.14301, 51.53393], [-78.60191, 52.56208], [-79.12421, 54.14145], [-79.82958, 54.66772], [-78.22874, 55.13645], [-77.0956, 55.83741], [-76.54137, 56.53423], [-76.62319, 57.20263], [-77.30226, 58.05209], [-78.51688, 58.80458], [-77.33676, 59.85261], [-77.77272, 60.75788], [-78.10687, 62.31964], [-77.41067, 62.55053], [-75.69621, 62.2784], [-74.6682, 62.18111], [-73.83988, 62.4438], [-72.90853, 62.10507], [-71.67708, 61.52535], [-71.37369, 61.13717], [-69.59042, 61.06141], [-69.62033, 60.22125], [-69.2879, 58.95736], [-68.37455, 58.80106], [-67.64976, 58.21206], [-66.20178, 58.76731], [-65.24517, 59.87071], [-64.58352, 60.33558], [-63.80475, 59.4426], [-62.50236, 58.16708], [-61.39655, 56.96745], [-61.79866, 56.33945], [-60.46853, 55.77548], [-59.56962, 55.20407], [-57.97508, 54.94549], [-57.3332, 54.6265], [-56.93689, 53.78032], [-56.15811, 53.64749], [-55.75632, 53.27036], [-55.68338, 52.14664], [-56.40916, 51.7707], [-57.12691, 51.41972], [-58.77482, 51.0643], [-60.03309, 50.24277], [-61.72366, 50.08046], [-63.86251, 50.29099], [-65.36331, 50.2982], [-66.39905, 50.22897], [-67.23631, 49.51156], [-68.51114, 49.06836], [-69.95362, 47.74488], [-71.10458, 46.82171], [-70.25522, 46.98606], [-68.65, 48.3], [-66.55243, 49.1331], [-65.05626, 49.23278], [-64.17099, 48.74248], [-65.11545, 48.07085], [-64.79854, 46.99297], [-64.47219, 46.23849], [-63.17329, 45.73902], [-61.52072, 45.88377], [-60.51815, 47.00793], [-60.4486, 46.28264], [-59.80287, 45.9204], [-61.03988, 45.26525], [-63.25471, 44.67014], [-64.24656, 44.26553], [-65.36406, 43.54523], [-66.1234, 43.61867], [-66.16173, 44.46512], [-64.42549, 45.29204], [-66.02605, 45.25931], [-67.13741, 45.13753], [-67.79134, 45.70281], [-67.79046, 47.06636], [-68.23444, 47.35486], [-68.905, 47.185], [-69.237216, 47.447781], [-69.99997, 46.69307], [-70.305, 45.915], [-70.66, 45.46], [-71.08482, 45.30524], [-71.405, 45.255], [-71.50506, 45.0082], [-73.34783, 45.00738], [-74.867, 45.00048], [-75.31821, 44.81645], [-76.375, 44.09631], [-76.5, 44.018459], [-76.820034, 43.628784], [-77.737885, 43.629056], [-78.72028, 43.625089], [-79.171674, 43.466339], [-79.01, 43.27], [-78.92, 42.965], [-78.939362, 42.863611], [-80.247448, 42.3662], [-81.277747, 42.209026], [-82.439278, 41.675105], [-82.690089, 41.675105], [-83.02981, 41.832796], [-83.142, 41.975681], [-83.12, 42.08], [-82.9, 42.43], [-82.43, 42.98], [-82.137642, 43.571088], [-82.337763, 44.44], [-82.550925, 45.347517], [-83.592851, 45.816894], [-83.469551, 45.994686], [-83.616131, 46.116927], [-83.890765, 46.116927], [-84.091851, 46.275419], [-84.14212, 46.512226], [-84.3367, 46.40877], [-84.6049, 46.4396], [-84.543749, 46.538684], [-84.779238, 46.637102], [-84.87608, 46.900083], [-85.652363, 47.220219], [-86.461991, 47.553338], [-87.439793, 47.94], [-88.378114, 48.302918], [-89.272917, 48.019808], [-89.6, 48.01], [-90.83, 48.27], [-91.64, 48.14], [-92.61, 48.45], [-93.63087, 48.60926], [-94.32914, 48.67074], [-94.64, 48.84], [-94.81758, 49.38905], [-95.15609, 49.38425], [-95.15907, 49.0], [-97.22872, 49.0007], [-100.65, 49.0], [-104.04826, 48.99986], [-107.05, 49.0], [-110.05, 49.0], [-113.0, 49.0], [-116.04818, 49.0], [-117.03121, 49.0], [-120.0, 49.0], [-122.84, 49.0]]], [[[-83.99367, 62.4528], [-83.25048, 62.91409], [-81.87699, 62.90458], [-81.89825, 62.7108], [-83.06857, 62.15922], [-83.77462, 62.18231], [-83.99367, 62.4528]]], [[[-79.775833, 72.802902], [-80.876099, 73.333183], [-80.833885, 73.693184], [-80.353058, 73.75972], [-78.064438, 73.651932], [-76.34, 73.102685], [-76.251404, 72.826385], [-77.314438, 72.855545], [-78.39167, 72.876656], [-79.486252, 72.742203], [-79.775833, 72.802902]]], [[[-80.315395, 62.085565], [-79.92939, 62.3856], [-79.52002, 62.36371], [-79.26582, 62.158675], [-79.65752, 61.63308], [-80.09956, 61.7181], [-80.36215, 62.01649], [-80.315395, 62.085565]]], [[[-93.612756, 74.979997], [-94.156909, 74.592347], [-95.608681, 74.666864], [-96.820932, 74.927623], [-96.288587, 75.377828], [-94.85082, 75.647218], [-93.977747, 75.29649], [-93.612756, 74.979997]]], [[[-93.840003, 77.519997], [-94.295608, 77.491343], [-96.169654, 77.555111], [-96.436304, 77.834629], [-94.422577, 77.820005], [-93.720656, 77.634331], [-93.840003, 77.519997]]], [[[-96.754399, 78.765813], [-95.559278, 78.418315], [-95.830295, 78.056941], [-97.309843, 77.850597], [-98.124289, 78.082857], [-98.552868, 78.458105], [-98.631984, 78.87193], [-97.337231, 78.831984], [-96.754399, 78.765813]]], [[[-88.15035, 74.392307], [-89.764722, 74.515555], [-92.422441, 74.837758], [-92.768285, 75.38682], [-92.889906, 75.882655], [-93.893824, 76.319244], [-95.962457, 76.441381], [-97.121379, 76.751078], [-96.745123, 77.161389], [-94.684086, 77.097878], [-93.573921, 76.776296], [-91.605023, 76.778518], [-90.741846, 76.449597], [-90.969661, 76.074013], [-89.822238, 75.847774], [-89.187083, 75.610166], [-87.838276, 75.566189], [-86.379192, 75.482421], [-84.789625, 75.699204], [-82.753445, 75.784315], [-81.128531, 75.713983], [-80.057511, 75.336849], [-79.833933, 74.923127], [-80.457771, 74.657304], [-81.948843, 74.442459], [-83.228894, 74.564028], [-86.097452, 74.410032], [-88.15035, 74.392307]]], [[[-111.264443, 78.152956], [-109.854452, 77.996325], [-110.186938, 77.697015], [-112.051191, 77.409229], [-113.534279, 77.732207], [-112.724587, 78.05105], [-111.264443, 78.152956]]], [[[-110.963661, 78.804441], [-109.663146, 78.601973], [-110.881314, 78.40692], [-112.542091, 78.407902], [-112.525891, 78.550555], [-111.50001, 78.849994], [-110.963661, 78.804441]]], [[[-55.600218, 51.317075], [-56.134036, 50.68701], [-56.795882, 49.812309], [-56.143105, 50.150117], [-55.471492, 49.935815], [-55.822401, 49.587129], [-54.935143, 49.313011], [-54.473775, 49.556691], [-53.476549, 49.249139], [-53.786014, 48.516781], [-53.086134, 48.687804], [-52.958648, 48.157164], [-52.648099, 47.535548], [-53.069158, 46.655499], [-53.521456, 46.618292], [-54.178936, 46.807066], [-53.961869, 47.625207], [-54.240482, 47.752279], [-55.400773, 46.884994], [-55.997481, 46.91972], [-55.291219, 47.389562], [-56.250799, 47.632545], [-57.325229, 47.572807], [-59.266015, 47.603348], [-59.419494, 47.899454], [-58.796586, 48.251525], [-59.231625, 48.523188], [-58.391805, 49.125581], [-57.35869, 50.718274], [-56.73865, 51.287438], [-55.870977, 51.632094], [-55.406974, 51.588273], [-55.600218, 51.317075]]], [[[-83.882626, 65.109618], [-82.787577, 64.766693], [-81.642014, 64.455136], [-81.55344, 63.979609], [-80.817361, 64.057486], [-80.103451, 63.725981], [-80.99102, 63.411246], [-82.547178, 63.651722], [-83.108798, 64.101876], [-84.100417, 63.569712], [-85.523405, 63.052379], [-85.866769, 63.637253], [-87.221983, 63.541238], [-86.35276, 64.035833], [-86.224886, 64.822917], [-85.883848, 65.738778], [-85.161308, 65.657285], [-84.975764, 65.217518], [-84.464012, 65.371772], [-83.882626, 65.109618]]], [[[-78.770639, 72.352173], [-77.824624, 72.749617], [-75.605845, 72.243678], [-74.228616, 71.767144], [-74.099141, 71.33084], [-72.242226, 71.556925], [-71.200015, 70.920013], [-68.786054, 70.525024], [-67.91497, 70.121948], [-66.969033, 69.186087], [-68.805123, 68.720198], [-66.449866, 68.067163], [-64.862314, 67.847539], [-63.424934, 66.928473], [-61.851981, 66.862121], [-62.163177, 66.160251], [-63.918444, 64.998669], [-65.14886, 65.426033], [-66.721219, 66.388041], [-68.015016, 66.262726], [-68.141287, 65.689789], [-67.089646, 65.108455], [-65.73208, 64.648406], [-65.320168, 64.382737], [-64.669406, 63.392927], [-65.013804, 62.674185], [-66.275045, 62.945099], [-68.783186, 63.74567], [-67.369681, 62.883966], [-66.328297, 62.280075], [-66.165568, 61.930897], [-68.877367, 62.330149], [-71.023437, 62.910708], [-72.235379, 63.397836], [-71.886278, 63.679989], [-73.378306, 64.193963], [-74.834419, 64.679076], [-74.818503, 64.389093], [-77.70998, 64.229542], [-78.555949, 64.572906], [-77.897281, 65.309192], [-76.018274, 65.326969], [-73.959795, 65.454765], [-74.293883, 65.811771], [-73.944912, 66.310578], [-72.651167, 67.284576], [-72.92606, 67.726926], [-73.311618, 68.069437], [-74.843307, 68.554627], [-76.869101, 68.894736], [-76.228649, 69.147769], [-77.28737, 69.76954], [-78.168634, 69.826488], [-78.957242, 70.16688], [-79.492455, 69.871808], [-81.305471, 69.743185], [-84.944706, 69.966634], [-87.060003, 70.260001], [-88.681713, 70.410741], [-89.51342, 70.762038], [-88.467721, 71.218186], [-89.888151, 71.222552], [-90.20516, 72.235074], [-89.436577, 73.129464], [-88.408242, 73.537889], [-85.826151, 73.803816], [-86.562179, 73.157447], [-85.774371, 72.534126], [-84.850112, 73.340278], [-82.31559, 73.750951], [-80.600088, 72.716544], [-80.748942, 72.061907], [-78.770639, 72.352173]]], [[[-94.503658, 74.134907], [-92.420012, 74.100025], [-90.509793, 73.856732], [-92.003965, 72.966244], [-93.196296, 72.771992], [-94.269047, 72.024596], [-95.409856, 72.061881], [-96.033745, 72.940277], [-96.018268, 73.43743], [-95.495793, 73.862417], [-94.503658, 74.134907]]], [[[-122.854924, 76.116543], [-122.854925, 76.116543], [-121.157535, 76.864508], [-119.103939, 77.51222], [-117.570131, 77.498319], [-116.198587, 77.645287], [-116.335813, 76.876962], [-117.106051, 76.530032], [-118.040412, 76.481172], [-119.899318, 76.053213], [-121.499995, 75.900019], [-122.854924, 76.116543]]], [[[-132.710008, 54.040009], [-131.74999, 54.120004], [-132.04948, 52.984621], [-131.179043, 52.180433], [-131.57783, 52.182371], [-132.180428, 52.639707], [-132.549992, 53.100015], [-133.054611, 53.411469], [-133.239664, 53.85108], [-133.180004, 54.169975], [-132.710008, 54.040009]]], [[[-105.492289, 79.301594], [-103.529282, 79.165349], [-100.825158, 78.800462], [-100.060192, 78.324754], [-99.670939, 77.907545], [-101.30394, 78.018985], [-102.949809, 78.343229], [-105.176133, 78.380332], [-104.210429, 78.67742], [-105.41958, 78.918336], [-105.492289, 79.301594]]], [[[-123.510002, 48.510011], [-124.012891, 48.370846], [-125.655013, 48.825005], [-125.954994, 49.179996], [-126.850004, 49.53], [-127.029993, 49.814996], [-128.059336, 49.994959], [-128.444584, 50.539138], [-128.358414, 50.770648], [-127.308581, 50.552574], [-126.695001, 50.400903], [-125.755007, 50.295018], [-125.415002, 49.950001], [-124.920768, 49.475275], [-123.922509, 49.062484], [-123.510002, 48.510011]]], [[[-121.53788, 74.44893], [-120.10978, 74.24135], [-117.55564, 74.18577], [-116.58442, 73.89607], [-115.51081, 73.47519], [-116.76794, 73.22292], [-119.22, 72.52], [-120.46, 71.82], [-120.46, 71.383602], [-123.09219, 70.90164], [-123.62, 71.34], [-125.928949, 71.868688], [-125.5, 72.292261], [-124.80729, 73.02256], [-123.94, 73.68], [-124.91775, 74.29275], [-121.53788, 74.44893]]], [[[-107.81943, 75.84552], [-106.92893, 76.01282], [-105.881, 75.9694], [-105.70498, 75.47951], [-106.31347, 75.00527], [-109.7, 74.85], [-112.22307, 74.41696], [-113.74381, 74.39427], [-113.87135, 74.72029], [-111.79421, 75.1625], [-116.31221, 75.04343], [-117.7104, 75.2222], [-116.34602, 76.19903], [-115.40487, 76.47887], [-112.59056, 76.14134], [-110.81422, 75.54919], [-109.0671, 75.47321], [-110.49726, 76.42982], [-109.5811, 76.79417], [-108.54859, 76.67832], [-108.21141, 76.20168], [-107.81943, 75.84552]]], [[[-106.52259, 73.07601], [-105.40246, 72.67259], [-104.77484, 71.6984], [-104.46476, 70.99297], [-102.78537, 70.49776], [-100.98078, 70.02432], [-101.08929, 69.58447], [-102.73116, 69.50402], [-102.09329, 69.11962], [-102.43024, 68.75282], [-104.24, 68.91], [-105.96, 69.18], [-107.12254, 69.11922], [-109.0, 68.78], [-111.534149, 68.630059], [-113.3132, 68.53554], [-113.85496, 69.00744], [-115.22, 69.28], [-116.10794, 69.16821], [-117.34, 69.96], [-116.67473, 70.06655], [-115.13112, 70.2373], [-113.72141, 70.19237], [-112.4161, 70.36638], [-114.35, 70.6], [-116.48684, 70.52045], [-117.9048, 70.54056], [-118.43238, 70.9092], [-116.11311, 71.30918], [-117.65568, 71.2952], [-119.40199, 71.55859], [-118.56267, 72.30785], [-117.86642, 72.70594], [-115.18909, 73.31459], [-114.16717, 73.12145], [-114.66634, 72.65277], [-112.44102, 72.9554], [-111.05039, 72.4504], [-109.92035, 72.96113], [-109.00654, 72.63335], [-108.18835, 71.65089], [-107.68599, 72.06548], [-108.39639, 73.08953], [-107.51645, 73.23598], [-106.52259, 73.07601]]], [[[-100.43836, 72.70588], [-101.54, 73.36], [-100.35642, 73.84389], [-99.16387, 73.63339], [-97.38, 73.76], [-97.12, 73.47], [-98.05359, 72.99052], [-96.54, 72.56], [-96.72, 71.66], [-98.35966, 71.27285], [-99.32286, 71.35639], [-100.01482, 71.73827], [-102.5, 72.51], [-102.48, 72.83], [-100.43836, 72.70588]]], [[[-106.6, 73.6], [-105.26, 73.64], [-104.5, 73.42], [-105.38, 72.76], [-106.94, 73.46], [-106.6, 73.6]]], [[[-98.5, 76.72], [-97.735585, 76.25656], [-97.704415, 75.74344], [-98.16, 75.0], [-99.80874, 74.89744], [-100.88366, 75.05736], [-100.86292, 75.64075], [-102.50209, 75.5638], [-102.56552, 76.3366], [-101.48973, 76.30537], [-99.98349, 76.64634], [-98.57699, 76.58859], [-98.5, 76.72]]], [[[-96.01644, 80.60233], [-95.32345, 80.90729], [-94.29843, 80.97727], [-94.73542, 81.20646], [-92.40984, 81.25739], [-91.13289, 80.72345], [-89.45, 80.509322], [-87.81, 80.32], [-87.02, 79.66], [-85.81435, 79.3369], [-87.18756, 79.0393], [-89.03535, 78.28723], [-90.80436, 78.21533], [-92.87669, 78.34333], [-93.95116, 78.75099], [-93.93574, 79.11373], [-93.14524, 79.3801], [-94.974, 79.37248], [-96.07614, 79.70502], [-96.70972, 80.15777], [-96.01644, 80.60233]]], [[[-91.58702, 81.89429], [-90.1, 82.085], [-88.93227, 82.11751], [-86.97024, 82.27961], [-85.5, 82.652273], [-84.260005, 82.6], [-83.18, 82.32], [-82.42, 82.86], [-81.1, 83.02], [-79.30664, 83.13056], [-76.25, 83.172059], [-75.71878, 83.06404], [-72.83153, 83.23324], [-70.665765, 83.169781], [-68.5, 83.106322], [-65.82735, 83.02801], [-63.68, 82.9], [-61.85, 82.6286], [-61.89388, 82.36165], [-64.334, 81.92775], [-66.75342, 81.72527], [-67.65755, 81.50141], [-65.48031, 81.50657], [-67.84, 80.9], [-69.4697, 80.61683], [-71.18, 79.8], [-73.2428, 79.63415], [-73.88, 79.430162], [-76.90773, 79.32309], [-75.52924, 79.19766], [-76.22046, 79.01907], [-75.39345, 78.52581], [-76.34354, 78.18296], [-77.88851, 77.89991], [-78.36269, 77.50859], [-79.75951, 77.20968], [-79.61965, 76.98336], [-77.91089, 77.022045], [-77.88911, 76.777955], [-80.56125, 76.17812], [-83.17439, 76.45403], [-86.11184, 76.29901], [-87.6, 76.42], [-89.49068, 76.47239], [-89.6161, 76.95213], [-87.76739, 77.17833], [-88.26, 77.9], [-87.65, 77.970222], [-84.97634, 77.53873], [-86.34, 78.18], [-87.96192, 78.37181], [-87.15198, 78.75867], [-85.37868, 78.9969], [-85.09495, 79.34543], [-86.50734, 79.73624], [-86.93179, 80.25145], [-84.19844, 80.20836], [-83.408696, 80.1], [-81.84823, 80.46442], [-84.1, 80.58], [-87.59895, 80.51627], [-89.36663, 80.85569], [-90.2, 81.26], [-91.36786, 81.5531], [-91.58702, 81.89429]]], [[[-75.21597, 67.44425], [-75.86588, 67.14886], [-76.98687, 67.09873], [-77.2364, 67.58809], [-76.81166, 68.14856], [-75.89521, 68.28721], [-75.1145, 68.01036], [-75.10333, 67.58202], [-75.21597, 67.44425]]], [[[-96.257401, 69.49003], [-95.647681, 69.10769], [-96.269521, 68.75704], [-97.617401, 69.06003], [-98.431801, 68.9507], [-99.797401, 69.40003], [-98.917401, 69.71003], [-98.218261, 70.14354], [-97.157401, 69.86003], [-96.557401, 69.68003], [-96.257401, 69.49003]]], [[[-64.51912, 49.87304], [-64.17322, 49.95718], [-62.85829, 49.70641], [-61.835585, 49.28855], [-61.806305, 49.10506], [-62.29318, 49.08717], [-63.58926, 49.40069], [-64.51912, 49.87304]]], [[[-64.01486, 47.03601], [-63.6645, 46.55001], [-62.9393, 46.41587], [-62.01208, 46.44314], [-62.50391, 46.03339], [-62.87433, 45.96818], [-64.1428, 46.39265], [-64.39261, 46.72747], [-64.01486, 47.03601]]]]}}, {"type": "Feature", "properties": {"NAME": "INDONESIA"}, "geometry": {"type": "MultiPolygon", "coordinates": [[[[141.00021, -2.600151], [141.017057, -5.859022], [141.033852, -9.117893], [140.143415, -8.297168], [139.127767, -8.096043], [138.881477, -8.380935], [137.614474, -8.411683], [138.039099, -7.597882], [138.668621, -7.320225], [138.407914, -6.232849], [137.92784, -5.393366], [135.98925, -4.546544], [135.164598, -4.462931], [133.66288, -3.538853], [133.367705, -4.024819], [132.983956, -4.112979], [132.756941, -3.746283], [132.753789, -3.311787], [131.989804, -2.820551], [133.066845, -2.460418], [133.780031, -2.479848], [133.696212, -2.214542], [132.232373, -2.212526], [131.836222, -1.617162], [130.94284, -1.432522], [130.519558, -0.93772], [131.867538, -0.695461], [132.380116, -0.369538], [133.985548, -0.78021], [134.143368, -1.151867], [134.422627, -2.769185], [135.457603, -3.367753], [136.293314, -2.307042], [137.440738, -1.703513], [138.329727, -1.702686], [139.184921, -2.051296], [139.926684, -2.409052], [141.00021, -2.600151]]], [[[124.968682, -8.89279], [125.07002, -9.089987], [125.08852, -9.393173], [124.43595, -10.140001], [123.579982, -10.359987], [123.459989, -10.239995], [123.550009, -9.900016], [123.980009, -9.290027], [124.968682, -8.89279]]], [[[134.210134, -6.895238], [134.112776, -6.142467], [134.290336, -5.783058], [134.499625, -5.445042], [134.727002, -5.737582], [134.724624, -6.214401], [134.210134, -6.895238]]], [[[117.882035, 4.137551], [117.313232, 3.234428], [118.04833, 2.28769], [117.875627, 1.827641], [118.996747, 0.902219], [117.811858, 0.784242], [117.478339, 0.102475], [117.521644, -0.803723], [116.560048, -1.487661], [116.533797, -2.483517], [116.148084, -4.012726], [116.000858, -3.657037], [114.864803, -4.106984], [114.468652, -3.495704], [113.755672, -3.43917], [113.256994, -3.118776], [112.068126, -3.478392], [111.703291, -2.994442], [111.04824, -3.049426], [110.223846, -2.934032], [110.070936, -1.592874], [109.571948, -1.314907], [109.091874, -0.459507], [108.952658, 0.415375], [109.069136, 1.341934], [109.66326, 2.006467], [109.830227, 1.338136], [110.514061, 0.773131], [111.159138, 0.976478], [111.797548, 0.904441], [112.380252, 1.410121], [112.859809, 1.49779], [113.80585, 1.217549], [114.621355, 1.430688], [115.134037, 2.821482], [115.519078, 3.169238], [115.865517, 4.306559], [117.015214, 4.306094], [117.882035, 4.137551]]], [[[129.370998, -2.802154], [130.471344, -3.093764], [130.834836, -3.858472], [129.990547, -3.446301], [129.155249, -3.362637], [128.590684, -3.428679], [127.898891, -3.393436], [128.135879, -2.84365], [129.370998, -2.802154]]], [[[126.874923, -3.790983], [126.183802, -3.607376], [125.989034, -3.177273], [127.000651, -3.129318], [127.249215, -3.459065], [126.874923, -3.790983]]], [[[127.932378, 2.174596], [128.004156, 1.628531], [128.594559, 1.540811], [128.688249, 1.132386], [128.635952, 0.258486], [128.12017, 0.356413], [127.968034, -0.252077], [128.379999, -0.780004], [128.100016, -0.899996], [127.696475, -0.266598], [127.39949, 1.011722], [127.600512, 1.810691], [127.932378, 2.174596]]], [[[122.927567, 0.875192], [124.077522, 0.917102], [125.065989, 1.643259], [125.240501, 1.419836], [124.437035, 0.427881], [123.685505, 0.235593], [122.723083, 0.431137], [121.056725, 0.381217], [120.183083, 0.237247], [120.04087, -0.519658], [120.935905, -1.408906], [121.475821, -0.955962], [123.340565, -0.615673], [123.258399, -1.076213], [122.822715, -0.930951], [122.38853, -1.516858], [121.508274, -1.904483], [122.454572, -3.186058], [122.271896, -3.5295], [123.170963, -4.683693], [123.162333, -5.340604], [122.628515, -5.634591], [122.236394, -5.282933], [122.719569, -4.464172], [121.738234, -4.851331], [121.489463, -4.574553], [121.619171, -4.188478], [120.898182, -3.602105], [120.972389, -2.627643], [120.305453, -2.931604], [120.390047, -4.097579], [120.430717, -5.528241], [119.796543, -5.6734], [119.366906, -5.379878], [119.653606, -4.459417], [119.498835, -3.494412], [119.078344, -3.487022], [118.767769, -2.801999], [119.180974, -2.147104], [119.323394, -1.353147], [119.825999, 0.154254], [120.035702, 0.566477], [120.885779, 1.309223], [121.666817, 1.013944], [122.927567, 0.875192]]], [[[120.295014, -10.25865], [118.967808, -9.557969], [119.90031, -9.36134], [120.425756, -9.665921], [120.775502, -9.969675], [120.715609, -10.239581], [120.295014, -10.25865]]], [[[121.341669, -8.53674], [122.007365, -8.46062], [122.903537, -8.094234], [122.756983, -8.649808], [121.254491, -8.933666], [119.924391, -8.810418], [119.920929, -8.444859], [120.715092, -8.236965], [121.341669, -8.53674]]], [[[118.260616, -8.362383], [118.87846, -8.280683], [119.126507, -8.705825], [117.970402, -8.906639], [117.277731, -9.040895], [116.740141, -9.032937], [117.083737, -8.457158], [117.632024, -8.449303], [117.900018, -8.095681], [118.260616, -8.362383]]], [[[108.486846, -6.421985], [108.623479, -6.777674], [110.539227, -6.877358], [110.759576, -6.465186], [112.614811, -6.946036], [112.978768, -7.594213], [114.478935, -7.776528], [115.705527, -8.370807], [114.564511, -8.751817], [113.464734, -8.348947], [112.559672, -8.376181], [111.522061, -8.302129], [110.58615, -8.122605], [109.427667, -7.740664], [108.693655, -7.6416], [108.277763, -7.766657], [106.454102, -7.3549], [106.280624, -6.9249], [105.365486, -6.851416], [106.051646, -5.895919], [107.265009, -5.954985], [108.072091, -6.345762], [108.486846, -6.421985]]], [[[104.369991, -1.084843], [104.53949, -1.782372], [104.887893, -2.340425], [105.622111, -2.428844], [106.108593, -3.061777], [105.857446, -4.305525], [105.817655, -5.852356], [104.710384, -5.873285], [103.868213, -5.037315], [102.584261, -4.220259], [102.156173, -3.614146], [101.399113, -2.799777], [100.902503, -2.050262], [100.141981, -0.650348], [99.26374, 0.183142], [98.970011, 1.042882], [98.601351, 1.823507], [97.699598, 2.453184], [97.176942, 3.308791], [96.424017, 3.86886], [95.380876, 4.970782], [95.293026, 5.479821], [95.936863, 5.439513], [97.484882, 5.246321], [98.369169, 4.26837], [99.142559, 3.59035], [99.693998, 3.174329], [100.641434, 2.099381], [101.658012, 2.083697], [102.498271, 1.3987], [103.07684, 0.561361], [103.838396, 0.104542], [103.437645, -0.711946], [104.010789, -1.059212], [104.369991, -1.084843]]]]}}, {"type": "Feature", "properties": {"NAME": "RUSSIA"}, "geometry": {"type": "MultiPolygon", "coordinates": [[[[178.7253, 71.0988], [180.0, 71.515714], [180.0, 70.832199], [178.903425, 70.78114], [178.7253, 71.0988]]], [[[49.10116, 46.39933], [48.64541, 45.80629], [47.67591, 45.64149], [46.68201, 44.6092], [47.59094, 43.66016], [47.49252, 42.98658], [48.58437, 41.80888], [48.584353, 41.808869], [47.987283, 41.405819], [47.815666, 41.151416], [47.373315, 41.219732], [46.686071, 41.827137], [46.404951, 41.860675], [45.7764, 42.09244], [45.470279, 42.502781], [44.537623, 42.711993], [43.93121, 42.55496], [43.75599, 42.74083], [42.3944, 43.2203], [40.92219, 43.38215], [40.076965, 43.553104], [39.955009, 43.434998], [38.68, 44.28], [37.53912, 44.65721], [36.67546, 45.24469], [37.40317, 45.40451], [38.23295, 46.24087], [37.67372, 46.63657], [39.14767, 47.04475], [39.1212, 47.26336], [38.223538, 47.10219], [38.255112, 47.5464], [38.77057, 47.82562], [39.738278, 47.898937], [39.89562, 48.23241], [39.67465, 48.78382], [40.080789, 49.30743], [40.06904, 49.60105], [38.594988, 49.926462], [38.010631, 49.915662], [37.39346, 50.383953], [36.626168, 50.225591], [35.356116, 50.577197], [35.37791, 50.77394], [35.022183, 51.207572], [34.224816, 51.255993], [34.141978, 51.566413], [34.391731, 51.768882], [33.7527, 52.335075], [32.715761, 52.238465], [32.412058, 52.288695], [32.15944, 52.06125], [31.785992, 52.101678], [31.78597, 52.10168], [31.540018, 52.742052], [31.305201, 53.073996], [31.49764, 53.16743], [32.304519, 53.132726], [32.693643, 53.351421], [32.405599, 53.618045], [31.731273, 53.794029], [31.791424, 53.974639], [31.384472, 54.157056], [30.757534, 54.811771], [30.971836, 55.081548], [30.873909, 55.550976], [29.896294, 55.789463], [29.371572, 55.670091], [29.229513, 55.918344], [28.176709, 56.16913], [27.855282, 56.759326], [27.770016, 57.244258], [27.288185, 57.474528], [27.716686, 57.791899], [27.42015, 58.72457], [28.131699, 59.300825], [27.98112, 59.47537], [27.981127, 59.475373], [29.1177, 60.02805], [28.070002, 60.503519], [28.07, 60.50352], [30.211107, 61.780028], [31.139991, 62.357693], [31.516092, 62.867687], [30.035872, 63.552814], [30.444685, 64.204453], [29.54443, 64.948672], [30.21765, 65.80598], [29.054589, 66.944286], [29.977426, 67.698297], [28.445944, 68.364613], [28.59193, 69.064777], [29.39955, 69.15692], [31.101042, 69.558101], [31.10108, 69.55811], [32.13272, 69.90595], [33.77547, 69.30142], [36.51396, 69.06342], [40.29234, 67.9324], [41.05987, 67.45713], [41.12595, 66.79158], [40.01583, 66.26618], [38.38295, 65.99953], [33.91871, 66.75961], [33.18444, 66.63253], [34.81477, 65.90015], [34.878574, 65.436213], [34.94391, 64.41437], [36.23129, 64.10945], [37.01273, 63.84983], [37.14197, 64.33471], [36.539579, 64.76446], [37.17604, 65.14322], [39.59345, 64.52079], [40.4356, 64.76446], [39.7626, 65.49682], [42.09309, 66.47623], [43.01604, 66.41858], [43.94975, 66.06908], [44.53226, 66.75634], [43.69839, 67.35245], [44.18795, 67.95051], [43.45282, 68.57079], [46.25, 68.25], [46.82134, 67.68997], [45.55517, 67.56652], [45.56202, 67.01005], [46.34915, 66.66767], [47.89416, 66.88455], [48.13876, 67.52238], [50.22766, 67.99867], [53.71743, 68.85738], [54.47171, 68.80815], [53.48582, 68.20131], [54.72628, 68.09702], [55.44268, 68.43866], [57.31702, 68.46628], [58.802, 68.88082], [59.94142, 68.27844], [61.07784, 68.94069], [60.03, 69.52], [60.55, 69.85], [63.504, 69.54739], [64.888115, 69.234835], [68.51216, 68.09233], [69.18068, 68.61563], [68.16444, 69.14436], [68.13522, 69.35649], [66.93008, 69.45461], [67.25976, 69.92873], [66.72492, 70.70889], [66.69466, 71.02897], [68.54006, 71.9345], [69.19636, 72.84336], [69.94, 73.04], [72.58754, 72.77629], [72.79603, 72.22006], [71.84811, 71.40898], [72.47011, 71.09019], [72.79188, 70.39114], [72.5647, 69.02085], [73.66787, 68.4079], [73.2387, 67.7404], [71.28, 66.32], [72.42301, 66.17267], [72.82077, 66.53267], [73.92099, 66.78946], [74.18651, 67.28429], [75.052, 67.76047], [74.46926, 68.32899], [74.93584, 68.98918], [73.84236, 69.07146], [73.60187, 69.62763], [74.3998, 70.63175], [73.1011, 71.44717], [74.89082, 72.12119], [74.65926, 72.83227], [75.15801, 72.85497], [75.68351, 72.30056], [75.28898, 71.33556], [76.35911, 71.15287], [75.90313, 71.87401], [77.57665, 72.26717], [79.65202, 72.32011], [81.5, 71.75], [80.61071, 72.58285], [80.51109, 73.6482], [82.25, 73.85], [84.65526, 73.80591], [86.8223, 73.93688], [86.00956, 74.45967], [87.16682, 75.11643], [88.31571, 75.14393], [90.26, 75.64], [92.90058, 75.77333], [93.23421, 76.0472], [95.86, 76.14], [96.67821, 75.91548], [98.92254, 76.44689], [100.75967, 76.43028], [101.03532, 76.86189], [101.99084, 77.28754], [104.3516, 77.69792], [106.06664, 77.37389], [104.705, 77.1274], [106.97013, 76.97419], [107.24, 76.48], [108.1538, 76.72335], [111.07726, 76.71], [113.33151, 76.22224], [114.13417, 75.84764], [113.88539, 75.32779], [112.77918, 75.03186], [110.15125, 74.47673], [109.4, 74.18], [110.64, 74.04], [112.11919, 73.78774], [113.01954, 73.97693], [113.52958, 73.33505], [113.96881, 73.59488], [115.56782, 73.75285], [118.77633, 73.58772], [119.02, 73.12], [123.20066, 72.97122], [123.25777, 73.73503], [125.38, 73.56], [126.97644, 73.56549], [128.59126, 73.03871], [129.05157, 72.39872], [128.46, 71.98], [129.71599, 71.19304], [131.28858, 70.78699], [132.2535, 71.8363], [133.85766, 71.38642], [135.56193, 71.65525], [137.49755, 71.34763], [138.23409, 71.62803], [139.86983, 71.48783], [139.14791, 72.41619], [140.46817, 72.84941], [149.5, 72.2], [150.35118, 71.60643], [152.9689, 70.84222], [157.00688, 71.03141], [158.99779, 70.86672], [159.83031, 70.45324], [159.70866, 69.72198], [160.94053, 69.43728], [162.27907, 69.64204], [164.05248, 69.66823], [165.94037, 69.47199], [167.83567, 69.58269], [169.57763, 68.6938], [170.81688, 69.01363], [170.0082, 69.65276], [170.45345, 70.09703], [173.64391, 69.81743], [175.72403, 69.87725], [178.6, 69.4], [180.0, 68.963636], [180.0, 64.979709], [179.99281, 64.97433], [178.7072, 64.53493], [177.41128, 64.60821], [178.313, 64.07593], [178.90825, 63.25197], [179.37034, 62.98262], [179.48636, 62.56894], [179.22825, 62.3041], [177.3643, 62.5219], [174.56929, 61.76915], [173.68013, 61.65261], [172.15, 60.95], [170.6985, 60.33618], [170.33085, 59.88177], [168.90046, 60.57355], [166.29498, 59.78855], [165.84, 60.16], [164.87674, 59.7316], [163.53929, 59.86871], [163.21711, 59.21101], [162.01733, 58.24328], [162.05297, 57.83912], [163.19191, 57.61503], [163.05794, 56.15924], [162.12958, 56.12219], [161.70146, 55.28568], [162.11749, 54.85514], [160.36877, 54.34433], [160.02173, 53.20257], [158.53094, 52.95868], [158.23118, 51.94269], [156.78979, 51.01105], [156.42, 51.7], [155.99182, 53.15895], [155.43366, 55.38103], [155.91442, 56.76792], [156.75815, 57.3647], [156.81035, 57.83204], [158.36433, 58.05575], [160.15064, 59.31477], [161.87204, 60.343], [163.66969, 61.1409], [164.47355, 62.55061], [163.25842, 62.46627], [162.65791, 61.6425], [160.12148, 60.54423], [159.30232, 61.77396], [156.72068, 61.43442], [154.21806, 59.75818], [155.04375, 59.14495], [152.81185, 58.88385], [151.26573, 58.78089], [151.33815, 59.50396], [149.78371, 59.65573], [148.54481, 59.16448], [145.48722, 59.33637], [142.19782, 59.03998], [138.95848, 57.08805], [135.12619, 54.72959], [136.70171, 54.60355], [137.19342, 53.97732], [138.1647, 53.75501], [138.80463, 54.25455], [139.90151, 54.18968], [141.34531, 53.08957], [141.37923, 52.23877], [140.59742, 51.23967], [140.51308, 50.04553], [140.06193, 48.44671], [138.55472, 46.99965], [138.21971, 46.30795], [136.86232, 45.1435], [135.51535, 43.989], [134.86939, 43.39821], [133.53687, 42.81147], [132.90627, 42.79849], [132.27807, 43.28456], [130.93587, 42.55274], [130.780005, 42.22001], [130.780004, 42.220008], [130.78, 42.22], [130.779992, 42.22001], [130.64, 42.395], [130.64, 42.395024], [130.633866, 42.903015], [131.144688, 42.92999], [131.288555, 44.11152], [131.02519, 44.96796], [131.883454, 45.321162], [133.09712, 45.14409], [133.769644, 46.116927], [134.11235, 47.21248], [134.50081, 47.57845], [135.026311, 48.47823], [133.373596, 48.183442], [132.50669, 47.78896], [130.98726, 47.79013], [130.582293, 48.729687], [129.397818, 49.4406], [127.6574, 49.76027], [127.287456, 50.739797], [126.939157, 51.353894], [126.564399, 51.784255], [125.946349, 52.792799], [125.068211, 53.161045], [123.57147, 53.4588], [122.245748, 53.431726], [121.003085, 53.251401], [120.177089, 52.753886], [120.725789, 52.516226], [120.7382, 51.96411], [120.18208, 51.64355], [119.27939, 50.58292], [119.288461, 50.142883], [117.879244, 49.510983], [116.678801, 49.888531], [115.485695, 49.805177], [114.96211, 50.140247], [114.362456, 50.248303], [112.89774, 49.543565], [111.581231, 49.377968], [110.662011, 49.130128], [109.402449, 49.292961], [108.475167, 49.282548], [107.868176, 49.793705], [106.888804, 50.274296], [105.886591, 50.406019], [104.62158, 50.27532], [103.676545, 50.089966], [102.25589, 50.51056], [102.06521, 51.25991], [100.88948, 51.516856], [99.981732, 51.634006], [98.861491, 52.047366], [97.82574, 51.010995], [98.231762, 50.422401], [97.25976, 49.72605], [95.81402, 49.97746], [94.815949, 50.013433], [94.147566, 50.480537], [93.10421, 50.49529], [92.234712, 50.802171], [90.713667, 50.331812], [88.805567, 49.470521], [87.751264, 49.297198], [87.35997, 49.214981], [86.829357, 49.826675], [85.54127, 49.692859], [85.11556, 50.117303], [84.416377, 50.3114], [83.935115, 50.889246], [83.383004, 51.069183], [81.945986, 50.812196], [80.568447, 51.388336], [80.03556, 50.864751], [77.800916, 53.404415], [76.525179, 54.177003], [76.8911, 54.490524], [74.38482, 53.54685], [73.425679, 53.48981], [73.508516, 54.035617], [72.22415, 54.376655], [71.180131, 54.133285], [70.865267, 55.169734], [69.068167, 55.38525], [68.1691, 54.970392], [65.66687, 54.60125], [65.178534, 54.354228], [61.4366, 54.00625], [60.978066, 53.664993], [61.699986, 52.979996], [60.739993, 52.719986], [60.927269, 52.447548], [59.967534, 51.96042], [61.588003, 51.272659], [61.337424, 50.79907], [59.932807, 50.842194], [59.642282, 50.545442], [58.36332, 51.06364], [56.77798, 51.04355], [55.71694, 50.62171], [54.532878, 51.02624], [52.328724, 51.718652], [50.766648, 51.692762], [48.702382, 50.605128], [48.577841, 49.87476], [47.54948, 50.454698], [46.751596, 49.356006], [47.043672, 49.152039], [46.466446, 48.394152], [47.31524, 47.71585], [48.05725, 47.74377], [48.694734, 47.075628], [48.59325, 46.56104], [49.10116, 46.39933]]], [[[93.77766, 81.0246], [95.940895, 81.2504], [97.88385, 80.746975], [100.186655, 79.780135], [99.93976, 78.88094], [97.75794, 78.7562], [94.97259, 79.044745], [93.31288, 79.4265], [92.5454, 80.14379], [91.18107, 80.34146], [93.77766, 81.0246]]], [[[102.837815, 79.28129], [105.37243, 78.71334], [105.07547, 78.30689], [99.43814, 77.921], [101.2649, 79.23399], [102.08635, 79.34641], [102.837815, 79.28129]]], [[[138.831075, 76.13676], [141.471615, 76.09289], [145.086285, 75.562625], [144.3, 74.82], [140.61381, 74.84768], [138.95544, 74.61148], [136.97439, 75.26167], [137.51176, 75.94917], [138.831075, 76.13676]]], [[[148.22223, 75.345845], [150.73167, 75.08406], [149.575925, 74.68892], [147.977465, 74.778355], [146.11919, 75.17298], [146.358485, 75.49682], [148.22223, 75.345845]]], [[[139.86312, 73.36983], [140.81171, 73.76506], [142.06207, 73.85758], [143.48283, 73.47525], [143.60385, 73.21244], [142.08763, 73.20544], [140.038155, 73.31692], [139.86312, 73.36983]]], [[[44.846958, 80.58981], [46.799139, 80.771918], [48.318477, 80.78401], [48.522806, 80.514569], [49.09719, 80.753986], [50.039768, 80.918885], [51.522933, 80.699726], [51.136187, 80.54728], [49.793685, 80.415428], [48.894411, 80.339567], [48.754937, 80.175468], [47.586119, 80.010181], [46.502826, 80.247247], [47.072455, 80.559424], [44.846958, 80.58981]]], [[[22.731099, 54.327537], [20.892245, 54.312525], [19.66064, 54.426084], [19.888481, 54.86616], [21.268449, 55.190482], [22.315724, 55.015299], [22.757764, 54.856574], [22.651052, 54.582741], [22.731099, 54.327537]]], [[[53.50829, 73.749814], [55.902459, 74.627486], [55.631933, 75.081412], [57.868644, 75.60939], [61.170044, 76.251883], [64.498368, 76.439055], [66.210977, 76.809782], [68.15706, 76.939697], [68.852211, 76.544811], [68.180573, 76.233642], [64.637326, 75.737755], [61.583508, 75.260885], [58.477082, 74.309056], [56.986786, 73.333044], [55.419336, 72.371268], [55.622838, 71.540595], [57.535693, 70.720464], [56.944979, 70.632743], [53.677375, 70.762658], [53.412017, 71.206662], [51.601895, 71.474759], [51.455754, 72.014881], [52.478275, 72.229442], [52.444169, 72.774731], [54.427614, 73.627548], [53.50829, 73.749814]]], [[[142.914616, 53.704578], [143.260848, 52.74076], [143.235268, 51.75666], [143.648007, 50.7476], [144.654148, 48.976391], [143.173928, 49.306551], [142.558668, 47.861575], [143.533492, 46.836728], [143.505277, 46.137908], [142.747701, 46.740765], [142.09203, 45.966755], [141.906925, 46.805929], [142.018443, 47.780133], [141.904445, 48.859189], [142.1358, 49.615163], [142.179983, 50.952342], [141.594076, 51.935435], [141.682546, 53.301966], [142.606934, 53.762145], [142.209749, 54.225476], [142.654786, 54.365881], [142.914616, 53.704578]]], [[[-174.92825, 67.20589], [-175.01425, 66.58435], [-174.33983, 66.33556], [-174.57182, 67.06219], [-171.85731, 66.91308], [-169.89958, 65.97724], [-170.89107, 65.54139], [-172.53025, 65.43791], [-172.555, 64.46079], [-172.95533, 64.25269], [-173.89184, 64.2826], [-174.65392, 64.63125], [-175.98353, 64.92288], [-176.20716, 65.35667], [-177.22266, 65.52024], [-178.35993, 65.39052], [-178.90332, 65.74044], [-178.68611, 66.11211], [-179.88377, 65.87456], [-179.43268, 65.40411], [-180.0, 64.979709], [-180.0, 68.963636], [-177.55, 68.2], [-174.92825, 67.20589]]], [[[-178.69378, 70.89302], [-180.0, 70.832199], [-180.0, 71.515714], [-179.871875, 71.55762], [-179.02433, 71.55553], [-177.577945, 71.26948], [-177.663575, 71.13277], [-178.69378, 70.89302]]], [[[33.435988, 45.971917], [33.699462, 46.219573], [34.410402, 46.005162], [34.732017, 45.965666], [34.861792, 45.768182], [35.012659, 45.737725], [35.020788, 45.651219], [35.510009, 45.409993], [36.529998, 45.46999], [36.334713, 45.113216], [35.239999, 44.939996], [33.882511, 44.361479], [33.326421, 44.564877], [33.546924, 45.034771], [32.454174, 45.327466], [32.630804, 45.519186], [33.588162, 45.851569], [33.435988, 45.971917]]]]}}, {"type": "Feature", "properties": {"NAME": "MEXICO"}, "geometry": {"type": "Polygon", "coordinates": [[[-117.12776, 32.53534], [-115.99135, 32.61239], [-114.72139, 32.72083], [-114.815, 32.52528], [-113.30498, 32.03914], [-111.02361, 31.33472], [-109.035, 31.34194], [-108.24194, 31.34222], [-108.24, 31.754854], [-106.50759, 31.75452], [-106.1429, 31.39995], [-105.63159, 31.08383], [-105.03737, 30.64402], [-104.70575, 30.12173], [-104.45697, 29.57196], [-103.94, 29.27], [-103.11, 28.97], [-102.48, 29.76], [-101.6624, 29.7793], [-100.9576, 29.38071], [-100.45584, 28.69612], [-100.11, 28.11], [-99.52, 27.54], [-99.3, 26.84], [-99.02, 26.37], [-98.24, 26.06], [-97.53, 25.84], [-97.140008, 25.869997], [-97.528072, 24.992144], [-97.702946, 24.272343], [-97.776042, 22.93258], [-97.872367, 22.444212], [-97.699044, 21.898689], [-97.38896, 21.411019], [-97.189333, 20.635433], [-96.525576, 19.890931], [-96.292127, 19.320371], [-95.900885, 18.828024], [-94.839063, 18.562717], [-94.42573, 18.144371], [-93.548651, 18.423837], [-92.786114, 18.524839], [-92.037348, 18.704569], [-91.407903, 18.876083], [-90.77187, 19.28412], [-90.53359, 19.867418], [-90.451476, 20.707522], [-90.278618, 20.999855], [-89.601321, 21.261726], [-88.543866, 21.493675], [-87.658417, 21.458846], [-87.05189, 21.543543], [-86.811982, 21.331515], [-86.845908, 20.849865], [-87.383291, 20.255405], [-87.621054, 19.646553], [-87.43675, 19.472403], [-87.58656, 19.04013], [-87.837191, 18.259816], [-88.090664, 18.516648], [-88.300031, 18.499982], [-88.490123, 18.486831], [-88.848344, 17.883198], [-89.029857, 18.001511], [-89.150909, 17.955468], [-89.14308, 17.808319], [-90.067934, 17.819326], [-91.00152, 17.817595], [-91.002269, 17.254658], [-91.453921, 17.252177], [-91.08167, 16.918477], [-90.711822, 16.687483], [-90.600847, 16.470778], [-90.438867, 16.41011], [-90.464473, 16.069562], [-91.74796, 16.066565], [-92.229249, 15.251447], [-92.087216, 15.064585], [-92.20323, 14.830103], [-92.22775, 14.538829], [-93.359464, 15.61543], [-93.875169, 15.940164], [-94.691656, 16.200975], [-95.250227, 16.128318], [-96.053382, 15.752088], [-96.557434, 15.653515], [-97.263592, 15.917065], [-98.01303, 16.107312], [-98.947676, 16.566043], [-99.697397, 16.706164], [-100.829499, 17.171071], [-101.666089, 17.649026], [-101.918528, 17.91609], [-102.478132, 17.975751], [-103.50099, 18.292295], [-103.917527, 18.748572], [-104.99201, 19.316134], [-105.493038, 19.946767], [-105.731396, 20.434102], [-105.397773, 20.531719], [-105.500661, 20.816895], [-105.270752, 21.076285], [-105.265817, 21.422104], [-105.603161, 21.871146], [-105.693414, 22.26908], [-106.028716, 22.773752], [-106.90998, 23.767774], [-107.915449, 24.548915], [-108.401905, 25.172314], [-109.260199, 25.580609], [-109.444089, 25.824884], [-109.291644, 26.442934], [-109.801458, 26.676176], [-110.391732, 27.162115], [-110.641019, 27.859876], [-111.178919, 27.941241], [-111.759607, 28.467953], [-112.228235, 28.954409], [-112.271824, 29.266844], [-112.809594, 30.021114], [-113.163811, 30.786881], [-113.148669, 31.170966], [-113.871881, 31.567608], [-114.205737, 31.524045], [-114.776451, 31.799532], [-114.9367, 31.393485], [-114.771232, 30.913617], [-114.673899, 30.162681], [-114.330974, 29.750432], [-113.588875, 29.061611], [-113.424053, 28.826174], [-113.271969, 28.754783], [-113.140039, 28.411289], [-112.962298, 28.42519], [-112.761587, 27.780217], [-112.457911, 27.525814], [-112.244952, 27.171727], [-111.616489, 26.662817], [-111.284675, 25.73259], [-110.987819, 25.294606], [-110.710007, 24.826004], [-110.655049, 24.298595], [-110.172856, 24.265548], [-109.771847, 23.811183], [-109.409104, 23.364672], [-109.433392, 23.185588], [-109.854219, 22.818272], [-110.031392, 22.823078], [-110.295071, 23.430973], [-110.949501, 24.000964], [-111.670568, 24.484423], [-112.182036, 24.738413], [-112.148989, 25.470125], [-112.300711, 26.012004], [-112.777297, 26.32196], [-113.464671, 26.768186], [-113.59673, 26.63946], [-113.848937, 26.900064], [-114.465747, 27.14209], [-115.055142, 27.722727], [-114.982253, 27.7982], [-114.570366, 27.741485], [-114.199329, 28.115003], [-114.162018, 28.566112], [-114.931842, 29.279479], [-115.518654, 29.556362], [-115.887365, 30.180794], [-116.25835, 30.836464], [-116.721526, 31.635744], [-117.12776, 32.53534]]]}}, {"type": "Feature", "properties": {"NAME": "FRANCE"}, "geometry": {"type": "MultiPolygon", "coordinates": [[[[-51.657797, 4.156232], [-52.249338, 3.241094], [-52.556425, 2.504705], [-52.939657, 2.124858], [-53.418465, 2.053389], [-53.554839, 2.334897], [-53.778521, 2.376703], [-54.088063, 2.105557], [-54.524754, 2.311849], [-54.269705, 2.732392], [-54.181726, 3.18978], [-54.006931, 3.620038], [-54.399542, 4.212611], [-54.478633, 4.896756], [-53.958045, 5.756548], [-53.618453, 5.646529], [-52.882141, 5.409851], [-51.823343, 4.565768], [-51.657797, 4.156232]]], [[[6.18632, 49.463803], [6.65823, 49.201958], [8.099279, 49.017784], [7.593676, 48.333019], [7.466759, 47.620582], [7.192202, 47.449766], [6.736571, 47.541801], [6.768714, 47.287708], [6.037389, 46.725779], [6.022609, 46.27299], [6.5001, 46.429673], [6.843593, 45.991147], [6.802355, 45.70858], [7.096652, 45.333099], [6.749955, 45.028518], [7.007562, 44.254767], [7.549596, 44.127901], [7.435185, 43.693845], [6.529245, 43.128892], [4.556963, 43.399651], [3.100411, 43.075201], [2.985999, 42.473015], [1.826793, 42.343385], [0.701591, 42.795734], [0.338047, 42.579546], [-1.502771, 43.034014], [-1.901351, 43.422802], [-1.384225, 44.02261], [-1.193798, 46.014918], [-2.225724, 47.064363], [-2.963276, 47.570327], [-4.491555, 47.954954], [-4.59235, 48.68416], [-3.295814, 48.901692], [-1.616511, 48.644421], [-1.933494, 49.776342], [-0.989469, 49.347376], [1.338761, 50.127173], [1.639001, 50.946606], [2.513573, 51.148506], [2.658422, 50.796848], [3.123252, 50.780363], [3.588184, 50.378992], [4.286023, 49.907497], [4.799222, 49.985373], [5.674052, 49.529484], [5.897759, 49.442667], [6.18632, 49.463803]]], [[[8.746009, 42.628122], [9.390001, 43.009985], [9.560016, 42.152492], [9.229752, 41.380007], [8.775723, 41.583612], [8.544213, 42.256517], [8.746009, 42.628122]]]]}}, {"type": "Feature", "properties": {"NAME": "UNITED ARAB EMIRATES"}, "geometry": {"type": "Polygon", "coordinates": [[[51.579519, 24.245497], [51.757441, 24.294073], [51.794389, 24.019826], [52.577081, 24.177439], [53.404007, 24.151317], [54.008001, 24.121758], [54.693024, 24.797892], [55.439025, 25.439145], [56.070821, 26.055464], [56.261042, 25.714606], [56.396847, 24.924732], [55.886233, 24.920831], [55.804119, 24.269604], [55.981214, 24.130543], [55.528632, 23.933604], [55.525841, 23.524869], [55.234489, 23.110993], [55.208341, 22.70833], [55.006803, 22.496948], [52.000733, 23.001154], [51.617708, 24.014219], [51.579519, 24.245497]]]}}, {"type": "Feature", "properties": {"NAME": "MYANMAR"}, "geometry": {"type": "Polygon", "coordinates": [[[100.115988, 20.41785], [99.543309, 20.186598], [98.959676, 19.752981], [98.253724, 19.708203], [97.797783, 18.62708], [97.375896, 18.445438], [97.859123, 17.567946], [98.493761, 16.837836], [98.903348, 16.177824], [98.537376, 15.308497], [98.192074, 15.123703], [98.430819, 14.622028], [99.097755, 13.827503], [99.212012, 13.269294], [99.196354, 12.804748], [99.587286, 11.892763], [99.038121, 10.960546], [98.553551, 9.93296], [98.457174, 10.675266], [98.764546, 11.441292], [98.428339, 12.032987], [98.509574, 13.122378], [98.103604, 13.64046], [97.777732, 14.837286], [97.597072, 16.100568], [97.16454, 16.928734], [96.505769, 16.427241], [95.369352, 15.71439], [94.808405, 15.803454], [94.188804, 16.037936], [94.533486, 17.27724], [94.324817, 18.213514], [93.540988, 19.366493], [93.663255, 19.726962], [93.078278, 19.855145], [92.368554, 20.670883], [92.303234, 21.475485], [92.652257, 21.324048], [92.672721, 22.041239], [93.166128, 22.27846], [93.060294, 22.703111], [93.286327, 23.043658], [93.325188, 24.078556], [94.106742, 23.850741], [94.552658, 24.675238], [94.603249, 25.162495], [95.155153, 26.001307], [95.124768, 26.573572], [96.419366, 27.264589], [97.133999, 27.083774], [97.051989, 27.699059], [97.402561, 27.882536], [97.327114, 28.261583], [97.911988, 28.335945], [98.246231, 27.747221], [98.68269, 27.508812], [98.712094, 26.743536], [98.671838, 25.918703], [97.724609, 25.083637], [97.60472, 23.897405], [98.660262, 24.063286], [98.898749, 23.142722], [99.531992, 22.949039], [99.240899, 22.118314], [99.983489, 21.742937], [100.416538, 21.558839], [101.150033, 21.849984], [101.180005, 21.436573], [100.329101, 20.786122], [100.115988, 20.41785]]]}}, {"type": "Feature", "properties": {"NAME": "VIETNAM"}, "geometry": {"type": "Polygon", "coordinates": [[[104.334335, 10.486544], [105.199915, 10.88931], [106.24967, 10.961812], [105.810524, 11.567615], [107.491403, 12.337206], [107.614548, 13.535531], [107.382727, 14.202441], [107.564525, 15.202173], [107.312706, 15.908538], [106.556008, 16.604284], [105.925762, 17.485315], [105.094598, 18.666975], [103.896532, 19.265181], [104.183388, 19.624668], [104.822574, 19.886642], [104.435, 20.758733], [103.203861, 20.766562], [102.754896, 21.675137], [102.170436, 22.464753], [102.706992, 22.708795], [103.504515, 22.703757], [104.476858, 22.81915], [105.329209, 23.352063], [105.811247, 22.976892], [106.725403, 22.794268], [106.567273, 22.218205], [107.04342, 21.811899], [108.05018, 21.55238], [106.715068, 20.696851], [105.881682, 19.75205], [105.662006, 19.058165], [106.426817, 18.004121], [107.361954, 16.697457], [108.269495, 16.079742], [108.877107, 15.276691], [109.33527, 13.426028], [109.200136, 11.666859], [108.36613, 11.008321], [107.220929, 10.364484], [106.405113, 9.53084], [105.158264, 8.59976], [104.795185, 9.241038], [105.076202, 9.918491], [104.334335, 10.486544]]]}}, {"type": "Feature", "properties": {"NAME": "INDIA"}, "geometry": {"type": "Polygon", "coordinates": [[[97.327114, 28.261583], [97.402561, 27.882536], [97.051989, 27.699059], [97.133999, 27.083774], [96.419366, 27.264589], [95.124768, 26.573572], [95.155153, 26.001307], [94.603249, 25.162495], [94.552658, 24.675238], [94.106742, 23.850741], [93.325188, 24.078556], [93.286327, 23.043658], [93.060294, 22.703111], [93.166128, 22.27846], [92.672721, 22.041239], [92.146035, 23.627499], [91.869928, 23.624346], [91.706475, 22.985264], [91.158963, 23.503527], [91.46773, 24.072639], [91.915093, 24.130414], [92.376202, 24.976693], [91.799596, 25.147432], [90.872211, 25.132601], [89.920693, 25.26975], [89.832481, 25.965082], [89.355094, 26.014407], [88.563049, 26.446526], [88.209789, 25.768066], [88.931554, 25.238692], [88.306373, 24.866079], [88.084422, 24.501657], [88.69994, 24.233715], [88.52977, 23.631142], [88.876312, 22.879146], [89.031961, 22.055708], [88.888766, 21.690588], [88.208497, 21.703172], [86.975704, 21.495562], [87.033169, 20.743308], [86.499351, 20.151638], [85.060266, 19.478579], [83.941006, 18.30201], [83.189217, 17.671221], [82.192792, 17.016636], [82.191242, 16.556664], [81.692719, 16.310219], [80.791999, 15.951972], [80.324896, 15.899185], [80.025069, 15.136415], [80.233274, 13.835771], [80.286294, 13.006261], [79.862547, 12.056215], [79.857999, 10.357275], [79.340512, 10.308854], [78.885345, 9.546136], [79.18972, 9.216544], [78.277941, 8.933047], [77.941165, 8.252959], [77.539898, 7.965535], [76.592979, 8.899276], [76.130061, 10.29963], [75.746467, 11.308251], [75.396101, 11.781245], [74.864816, 12.741936], [74.616717, 13.992583], [74.443859, 14.617222], [73.534199, 15.990652], [73.119909, 17.92857], [72.820909, 19.208234], [72.824475, 20.419503], [72.630533, 21.356009], [71.175273, 20.757441], [70.470459, 20.877331], [69.16413, 22.089298], [69.644928, 22.450775], [69.349597, 22.84318], [68.176645, 23.691965], [68.842599, 24.359134], [71.04324, 24.356524], [70.844699, 25.215102], [70.282873, 25.722229], [70.168927, 26.491872], [69.514393, 26.940966], [70.616496, 27.989196], [71.777666, 27.91318], [72.823752, 28.961592], [73.450638, 29.976413], [74.42138, 30.979815], [74.405929, 31.692639], [75.258642, 32.271105], [74.451559, 32.7649], [74.104294, 33.441473], [73.749948, 34.317699], [74.240203, 34.748887], [75.757061, 34.504923], [76.871722, 34.653544], [77.837451, 35.49401], [78.912269, 34.321936], [78.811086, 33.506198], [79.208892, 32.994395], [79.176129, 32.48378], [78.458446, 32.618164], [78.738894, 31.515906], [79.721367, 30.882715], [81.111256, 30.183481], [80.476721, 29.729865], [80.088425, 28.79447], [81.057203, 28.416095], [81.999987, 27.925479], [83.304249, 27.364506], [84.675018, 27.234901], [85.251779, 26.726198], [86.024393, 26.630985], [87.227472, 26.397898], [88.060238, 26.414615], [88.174804, 26.810405], [88.043133, 27.445819], [88.120441, 27.876542], [88.730326, 28.086865], [88.814248, 27.299316], [88.835643, 27.098966], [89.744528, 26.719403], [90.373275, 26.875724], [91.217513, 26.808648], [92.033484, 26.83831], [92.103712, 27.452614], [91.696657, 27.771742], [92.503119, 27.896876], [93.413348, 28.640629], [94.56599, 29.277438], [95.404802, 29.031717], [96.117679, 29.452802], [96.586591, 28.83098], [96.248833, 28.411031], [97.327114, 28.261583]]]}}, {"type": "Feature", "properties": {"NAME": "BANGLADESH"}, "geometry": {"type": "Polygon", "coordinates": [[[92.672721, 22.041239], [92.652257, 21.324048], [92.303234, 21.475485], [92.368554, 20.670883], [92.082886, 21.192195], [92.025215, 21.70157], [91.834891, 22.182936], [91.417087, 22.765019], [90.496006, 22.805017], [90.586957, 22.392794], [90.272971, 21.836368], [89.847467, 22.039146], [89.70205, 21.857116], [89.418863, 21.966179], [89.031961, 22.055708], [88.876312, 22.879146], [88.52977, 23.631142], [88.69994, 24.233715], [88.084422, 24.501657], [88.306373, 24.866079], [88.931554, 25.238692], [88.209789, 25.768066], [88.563049, 26.446526], [89.355094, 26.014407], [89.832481, 25.965082], [89.920693, 25.26975], [90.872211, 25.132601], [91.799596, 25.147432], [92.376202, 24.976693], [91.915093, 24.130414], [91.46773, 24.072639], [91.158963, 23.503527], [91.706475, 22.985264], [91.869928, 23.624346], [92.146035, 23.627499], [92.672721, 22.041239]]]}}, {"type": "Feature", "properties": {"NAME": "PAKISTAN"}, "geometry": {"type": "Polygon", "coordinates": [[[77.837451, 35.49401], [76.871722, 34.653544], [75.757061, 34.504923], [74.240203, 34.748887], [73.749948, 34.317699], [74.104294, 33.441473], [74.451559, 32.7649], [75.258642, 32.271105], [74.405929, 31.692639], [74.42138, 30.979815], [73.450638, 29.976413], [72.823752, 28.961592], [71.777666, 27.91318], [70.616496, 27.989196], [69.514393, 26.940966], [70.168927, 26.491872], [70.282873, 25.722229], [70.844699, 25.215102], [71.04324, 24.356524], [68.842599, 24.359134], [68.176645, 23.691965], [67.443667, 23.944844], [67.145442, 24.663611], [66.372828, 25.425141], [64.530408, 25.237039], [62.905701, 25.218409], [61.497363, 25.078237], [61.874187, 26.239975], [63.316632, 26.756532], [63.233898, 27.217047], [62.755426, 27.378923], [62.72783, 28.259645], [61.771868, 28.699334], [61.369309, 29.303276], [60.874248, 29.829239], [62.549857, 29.318572], [63.550261, 29.468331], [64.148002, 29.340819], [64.350419, 29.560031], [65.046862, 29.472181], [66.346473, 29.887943], [66.381458, 30.738899], [66.938891, 31.304911], [67.683394, 31.303154], [67.792689, 31.58293], [68.556932, 31.71331], [68.926677, 31.620189], [69.317764, 31.901412], [69.262522, 32.501944], [69.687147, 33.105499], [70.323594, 33.358533], [69.930543, 34.02012], [70.881803, 33.988856], [71.156773, 34.348911], [71.115019, 34.733126], [71.613076, 35.153203], [71.498768, 35.650563], [71.262348, 36.074388], [71.846292, 36.509942], [72.920025, 36.720007], [74.067552, 36.836176], [74.575893, 37.020841], [75.158028, 37.133031], [75.896897, 36.666806], [76.192848, 35.898403], [77.837451, 35.49401]]]}}, {"type": "Feature", "properties": {"NAME": "GERMANY"}, "geometry": {"type": "Polygon", "coordinates": [[[14.119686, 53.757029], [14.353315, 53.248171], [14.074521, 52.981263], [14.4376, 52.62485], [14.685026, 52.089947], [14.607098, 51.745188], [15.016996, 51.106674], [14.570718, 51.002339], [14.307013, 51.117268], [14.056228, 50.926918], [13.338132, 50.733234], [12.966837, 50.484076], [12.240111, 50.266338], [12.415191, 49.969121], [12.521024, 49.547415], [13.031329, 49.307068], [13.595946, 48.877172], [13.243357, 48.416115], [12.884103, 48.289146], [13.025851, 47.637584], [12.932627, 47.467646], [12.62076, 47.672388], [12.141357, 47.703083], [11.426414, 47.523766], [10.544504, 47.566399], [10.402084, 47.302488], [9.896068, 47.580197], [9.594226, 47.525058], [8.522612, 47.830828], [8.317301, 47.61358], [7.466759, 47.620582], [7.593676, 48.333019], [8.099279, 49.017784], [6.65823, 49.201958], [6.18632, 49.463803], [6.242751, 49.902226], [6.043073, 50.128052], [6.156658, 50.803721], [5.988658, 51.851616], [6.589397, 51.852029], [6.84287, 52.22844], [7.092053, 53.144043], [6.90514, 53.482162], [7.100425, 53.693932], [7.936239, 53.748296], [8.121706, 53.527792], [8.800734, 54.020786], [8.572118, 54.395646], [8.526229, 54.962744], [9.282049, 54.830865], [9.921906, 54.983104], [9.93958, 54.596642], [10.950112, 54.363607], [10.939467, 54.008693], [11.956252, 54.196486], [12.51844, 54.470371], [13.647467, 54.075511], [14.119686, 53.757029]]]}}, {"type": "Feature", "properties": {"NAME": "SPAIN"}, "geometry": {"type": "Polygon", "coordinates": [[[-7.453726, 37.097788], [-7.537105, 37.428904], [-7.166508, 37.803894], [-7.029281, 38.075764], [-7.374092, 38.373059], [-7.098037, 39.030073], [-7.498632, 39.629571], [-7.066592, 39.711892], [-7.026413, 40.184524], [-6.86402, 40.330872], [-6.851127, 41.111083], [-6.389088, 41.381815], [-6.668606, 41.883387], [-7.251309, 41.918346], [-7.422513, 41.792075], [-8.013175, 41.790886], [-8.263857, 42.280469], [-8.671946, 42.134689], [-9.034818, 41.880571], [-8.984433, 42.592775], [-9.392884, 43.026625], [-7.97819, 43.748338], [-6.754492, 43.567909], [-5.411886, 43.57424], [-4.347843, 43.403449], [-3.517532, 43.455901], [-1.901351, 43.422802], [-1.502771, 43.034014], [0.338047, 42.579546], [0.701591, 42.795734], [1.826793, 42.343385], [2.985999, 42.473015], [3.039484, 41.89212], [2.091842, 41.226089], [0.810525, 41.014732], [0.721331, 40.678318], [0.106692, 40.123934], [-0.278711, 39.309978], [0.111291, 38.738514], [-0.467124, 38.292366], [-0.683389, 37.642354], [-1.438382, 37.443064], [-2.146453, 36.674144], [-3.415781, 36.6589], [-4.368901, 36.677839], [-4.995219, 36.324708], [-5.37716, 35.94685], [-5.866432, 36.029817], [-6.236694, 36.367677], [-6.520191, 36.942913], [-7.453726, 37.097788]]]}}, {"type": "Feature", "properties": {"NAME": "CHINA"}, "geometry": {"type": "MultiPolygon", "coordinates": [[[[109.47521, 18.197701], [108.655208, 18.507682], [108.626217, 19.367888], [109.119056, 19.821039], [110.211599, 20.101254], [110.786551, 20.077534], [111.010051, 19.69593], [110.570647, 19.255879], [110.339188, 18.678395], [109.47521, 18.197701]]], [[[80.25999, 42.349999], [80.18015, 42.920068], [80.866206, 43.180362], [79.966106, 44.917517], [81.947071, 45.317027], [82.458926, 45.53965], [83.180484, 47.330031], [85.16429, 47.000956], [85.720484, 47.452969], [85.768233, 48.455751], [86.598776, 48.549182], [87.35997, 49.214981], [87.751264, 49.297198], [88.013832, 48.599463], [88.854298, 48.069082], [90.280826, 47.693549], [90.970809, 46.888146], [90.585768, 45.719716], [90.94554, 45.286073], [92.133891, 45.115076], [93.480734, 44.975472], [94.688929, 44.352332], [95.306875, 44.241331], [95.762455, 43.319449], [96.349396, 42.725635], [97.451757, 42.74889], [99.515817, 42.524691], [100.845866, 42.663804], [101.83304, 42.514873], [103.312278, 41.907468], [104.522282, 41.908347], [104.964994, 41.59741], [106.129316, 42.134328], [107.744773, 42.481516], [109.243596, 42.519446], [110.412103, 42.871234], [111.129682, 43.406834], [111.829588, 43.743118], [111.667737, 44.073176], [111.348377, 44.457442], [111.873306, 45.102079], [112.436062, 45.011646], [113.463907, 44.808893], [114.460332, 45.339817], [115.985096, 45.727235], [116.717868, 46.388202], [117.421701, 46.672733], [118.874326, 46.805412], [119.66327, 46.69268], [119.772824, 47.048059], [118.866574, 47.74706], [118.064143, 48.06673], [117.295507, 47.697709], [116.308953, 47.85341], [115.742837, 47.726545], [115.485282, 48.135383], [116.191802, 49.134598], [116.678801, 49.888531], [117.879244, 49.510983], [119.288461, 50.142883], [119.27939, 50.58292], [120.18208, 51.64355], [120.7382, 51.96411], [120.725789, 52.516226], [120.177089, 52.753886], [121.003085, 53.251401], [122.245748, 53.431726], [123.57147, 53.4588], [125.068211, 53.161045], [125.946349, 52.792799], [126.564399, 51.784255], [126.939157, 51.353894], [127.287456, 50.739797], [127.6574, 49.76027], [129.397818, 49.4406], [130.582293, 48.729687], [130.98726, 47.79013], [132.50669, 47.78896], [133.373596, 48.183442], [135.026311, 48.47823], [134.50081, 47.57845], [134.11235, 47.21248], [133.769644, 46.116927], [133.09712, 45.14409], [131.883454, 45.321162], [131.02519, 44.96796], [131.288555, 44.11152], [131.144688, 42.92999], [130.633866, 42.903015], [130.64, 42.395024], [129.994267, 42.985387], [129.596669, 42.424982], [128.052215, 41.994285], [128.208433, 41.466772], [127.343783, 41.503152], [126.869083, 41.816569], [126.182045, 41.107336], [125.079942, 40.569824], [124.265625, 39.928493], [122.86757, 39.637788], [122.131388, 39.170452], [121.054554, 38.897471], [121.585995, 39.360854], [121.376757, 39.750261], [122.168595, 40.422443], [121.640359, 40.94639], [120.768629, 40.593388], [119.639602, 39.898056], [119.023464, 39.252333], [118.042749, 39.204274], [117.532702, 38.737636], [118.059699, 38.061476], [118.87815, 37.897325], [118.911636, 37.448464], [119.702802, 37.156389], [120.823457, 37.870428], [121.711259, 37.481123], [122.357937, 37.454484], [122.519995, 36.930614], [121.104164, 36.651329], [120.637009, 36.11144], [119.664562, 35.609791], [119.151208, 34.909859], [120.227525, 34.360332], [120.620369, 33.376723], [121.229014, 32.460319], [121.908146, 31.692174], [121.891919, 30.949352], [121.264257, 30.676267], [121.503519, 30.142915], [122.092114, 29.83252], [121.938428, 29.018022], [121.684439, 28.225513], [121.125661, 28.135673], [120.395473, 27.053207], [119.585497, 25.740781], [118.656871, 24.547391], [117.281606, 23.624501], [115.890735, 22.782873], [114.763827, 22.668074], [114.152547, 22.22376], [113.80678, 22.54834], [113.241078, 22.051367], [111.843592, 21.550494], [110.785466, 21.397144], [110.444039, 20.341033], [109.889861, 20.282457], [109.627655, 21.008227], [109.864488, 21.395051], [108.522813, 21.715212], [108.05018, 21.55238], [107.04342, 21.811899], [106.567273, 22.218205], [106.725403, 22.794268], [105.811247, 22.976892], [105.329209, 23.352063], [104.476858, 22.81915], [103.504515, 22.703757], [102.706992, 22.708795], [102.170436, 22.464753], [101.652018, 22.318199], [101.80312, 21.174367], [101.270026, 21.201652], [101.180005, 21.436573], [101.150033, 21.849984], [100.416538, 21.558839], [99.983489, 21.742937], [99.240899, 22.118314], [99.531992, 22.949039], [98.898749, 23.142722], [98.660262, 24.063286], [97.60472, 23.897405], [97.724609, 25.083637], [98.671838, 25.918703], [98.712094, 26.743536], [98.68269, 27.508812], [98.246231, 27.747221], [97.911988, 28.335945], [97.327114, 28.261583], [96.248833, 28.411031], [96.586591, 28.83098], [96.117679, 29.452802], [95.404802, 29.031717], [94.56599, 29.277438], [93.413348, 28.640629], [92.503119, 27.896876], [91.696657, 27.771742], [91.258854, 28.040614], [90.730514, 28.064954], [90.015829, 28.296439], [89.47581, 28.042759], [88.814248, 27.299316], [88.730326, 28.086865], [88.120441, 27.876542], [86.954517, 27.974262], [85.82332, 28.203576], [85.011638, 28.642774], [84.23458, 28.839894], [83.898993, 29.320226], [83.337115, 29.463732], [82.327513, 30.115268], [81.525804, 30.422717], [81.111256, 30.183481], [79.721367, 30.882715], [78.738894, 31.515906], [78.458446, 32.618164], [79.176129, 32.48378], [79.208892, 32.994395], [78.811086, 33.506198], [78.912269, 34.321936], [77.837451, 35.49401], [76.192848, 35.898403], [75.896897, 36.666806], [75.158028, 37.133031], [74.980002, 37.41999], [74.829986, 37.990007], [74.864816, 38.378846], [74.257514, 38.606507], [73.928852, 38.505815], [73.675379, 39.431237], [73.960013, 39.660008], [73.822244, 39.893973], [74.776862, 40.366425], [75.467828, 40.562072], [76.526368, 40.427946], [76.904484, 41.066486], [78.187197, 41.185316], [78.543661, 41.582243], [80.11943, 42.123941], [80.25999, 42.349999]]]]}}, {"type": "Feature", "properties": {"NAME": "PHILIPPINES"}, "geometry": {"type": "MultiPolygon", "coordinates": [[[[120.833896, 12.704496], [120.323436, 13.466413], [121.180128, 13.429697], [121.527394, 13.06959], [121.26219, 12.20556], [120.833896, 12.704496]]], [[[122.586089, 9.981045], [122.837081, 10.261157], [122.947411, 10.881868], [123.49885, 10.940624], [123.337774, 10.267384], [124.077936, 11.232726], [123.982438, 10.278779], [123.623183, 9.950091], [123.309921, 9.318269], [122.995883, 9.022189], [122.380055, 9.713361], [122.586089, 9.981045]]], [[[126.376814, 8.414706], [126.478513, 7.750354], [126.537424, 7.189381], [126.196773, 6.274294], [125.831421, 7.293715], [125.363852, 6.786485], [125.683161, 6.049657], [125.396512, 5.581003], [124.219788, 6.161355], [123.93872, 6.885136], [124.243662, 7.36061], [123.610212, 7.833527], [123.296071, 7.418876], [122.825506, 7.457375], [122.085499, 6.899424], [121.919928, 7.192119], [122.312359, 8.034962], [122.942398, 8.316237], [123.487688, 8.69301], [123.841154, 8.240324], [124.60147, 8.514158], [124.764612, 8.960409], [125.471391, 8.986997], [125.412118, 9.760335], [126.222714, 9.286074], [126.306637, 8.782487], [126.376814, 8.414706]]], [[[118.504581, 9.316383], [117.174275, 8.3675], [117.664477, 9.066889], [118.386914, 9.6845], [118.987342, 10.376292], [119.511496, 11.369668], [119.689677, 10.554291], [119.029458, 10.003653], [118.504581, 9.316383]]], [[[122.336957, 18.224883], [122.174279, 17.810283], [122.515654, 17.093505], [122.252311, 16.262444], [121.662786, 15.931018], [121.50507, 15.124814], [121.728829, 14.328376], [122.258925, 14.218202], [122.701276, 14.336541], [123.950295, 13.782131], [123.855107, 13.237771], [124.181289, 12.997527], [124.077419, 12.536677], [123.298035, 13.027526], [122.928652, 13.55292], [122.671355, 13.185836], [122.03465, 13.784482], [121.126385, 13.636687], [120.628637, 13.857656], [120.679384, 14.271016], [120.991819, 14.525393], [120.693336, 14.756671], [120.564145, 14.396279], [120.070429, 14.970869], [119.920929, 15.406347], [119.883773, 16.363704], [120.286488, 16.034629], [120.390047, 17.599081], [120.715867, 18.505227], [121.321308, 18.504065], [121.937601, 18.218552], [122.246006, 18.47895], [122.336957, 18.224883]]], [[[122.03837, 11.415841], [121.883548, 11.891755], [122.483821, 11.582187], [123.120217, 11.58366], [123.100838, 11.165934], [122.637714, 10.741308], [122.00261, 10.441017], [121.967367, 10.905691], [122.03837, 11.415841]]], [[[125.502552, 12.162695], [125.783465, 11.046122], [125.011884, 11.311455], [125.032761, 10.975816], [125.277449, 10.358722], [124.801819, 10.134679], [124.760168, 10.837995], [124.459101, 10.88993], [124.302522, 11.495371], [124.891013, 11.415583], [124.87799, 11.79419], [124.266762, 12.557761], [125.227116, 12.535721], [125.502552, 12.162695]]]]}}, {"type": "Feature", "properties": {"NAME": "MALAYSIA"}, "geometry": {"type": "MultiPolygon", "coordinates": [[[[100.085757, 6.464489], [100.259596, 6.642825], [101.075516, 6.204867], [101.154219, 5.691384], [101.814282, 5.810808], [102.141187, 6.221636], [102.371147, 6.128205], [102.961705, 5.524495], [103.381215, 4.855001], [103.438575, 4.181606], [103.332122, 3.726698], [103.429429, 3.382869], [103.502448, 2.791019], [103.854674, 2.515454], [104.247932, 1.631141], [104.228811, 1.293048], [103.519707, 1.226334], [102.573615, 1.967115], [101.390638, 2.760814], [101.27354, 3.270292], [100.695435, 3.93914], [100.557408, 4.76728], [100.196706, 5.312493], [100.30626, 6.040562], [100.085757, 6.464489]]], [[[117.882035, 4.137551], [117.015214, 4.306094], [115.865517, 4.306559], [115.519078, 3.169238], [115.134037, 2.821482], [114.621355, 1.430688], [113.80585, 1.217549], [112.859809, 1.49779], [112.380252, 1.410121], [111.797548, 0.904441], [111.159138, 0.976478], [110.514061, 0.773131], [109.830227, 1.338136], [109.66326, 2.006467], [110.396135, 1.663775], [111.168853, 1.850637], [111.370081, 2.697303], [111.796928, 2.885897], [112.995615, 3.102395], [113.712935, 3.893509], [114.204017, 4.525874], [114.659596, 4.007637], [114.869557, 4.348314], [115.347461, 4.316636], [115.4057, 4.955228], [115.45071, 5.44773], [116.220741, 6.143191], [116.725103, 6.924771], [117.129626, 6.928053], [117.643393, 6.422166], [117.689075, 5.98749], [118.347691, 5.708696], [119.181904, 5.407836], [119.110694, 5.016128], [118.439727, 4.966519], [118.618321, 4.478202], [117.882035, 4.137551]]]]}}, {"type": "Feature", "properties": {"NAME": "JAPAN"}, "geometry": {"type": "MultiPolygon", "coordinates": [[[[141.884601, 39.180865], [140.959489, 38.174001], [140.976388, 37.142074], [140.59977, 36.343983], [140.774074, 35.842877], [140.253279, 35.138114], [138.975528, 34.6676], [137.217599, 34.606286], [135.792983, 33.464805], [135.120983, 33.849071], [135.079435, 34.596545], [133.340316, 34.375938], [132.156771, 33.904933], [130.986145, 33.885761], [132.000036, 33.149992], [131.33279, 31.450355], [130.686318, 31.029579], [130.20242, 31.418238], [130.447676, 32.319475], [129.814692, 32.61031], [129.408463, 33.296056], [130.353935, 33.604151], [130.878451, 34.232743], [131.884229, 34.749714], [132.617673, 35.433393], [134.608301, 35.731618], [135.677538, 35.527134], [136.723831, 37.304984], [137.390612, 36.827391], [138.857602, 37.827485], [139.426405, 38.215962], [140.05479, 39.438807], [139.883379, 40.563312], [140.305783, 41.195005], [141.368973, 41.37856], [141.914263, 39.991616], [141.884601, 39.180865]]], [[[144.613427, 43.960883], [145.320825, 44.384733], [145.543137, 43.262088], [144.059662, 42.988358], [143.18385, 41.995215], [141.611491, 42.678791], [141.067286, 41.584594], [139.955106, 41.569556], [139.817544, 42.563759], [140.312087, 43.333273], [141.380549, 43.388825], [141.671952, 44.772125], [141.967645, 45.551483], [143.14287, 44.510358], [143.910162, 44.1741], [144.613427, 43.960883]]], [[[132.371176, 33.463642], [132.924373, 34.060299], [133.492968, 33.944621], [133.904106, 34.364931], [134.638428, 34.149234], [134.766379, 33.806335], [134.203416, 33.201178], [133.79295, 33.521985], [133.280268, 33.28957], [133.014858, 32.704567], [132.363115, 32.989382], [132.371176, 33.463642]]]]}}, {"type": "Feature", "properties": {"NAME": "SAUDI ARABIA"}, "geometry": {"type": "Polygon", "coordinates": [[[34.956037, 29.356555], [36.068941, 29.197495], [36.501214, 29.505254], [36.740528, 29.865283], [37.503582, 30.003776], [37.66812, 30.338665], [37.998849, 30.5085], [37.002166, 31.508413], [39.004886, 32.010217], [39.195468, 32.161009], [40.399994, 31.889992], [41.889981, 31.190009], [44.709499, 29.178891], [46.568713, 29.099025], [47.459822, 29.002519], [47.708851, 28.526063], [48.416094, 28.552004], [48.807595, 27.689628], [49.299554, 27.461218], [49.470914, 27.109999], [50.152422, 26.689663], [50.212935, 26.277027], [50.113303, 25.943972], [50.239859, 25.60805], [50.527387, 25.327808], [50.660557, 24.999896], [50.810108, 24.754743], [51.112415, 24.556331], [51.389608, 24.627386], [51.579519, 24.245497], [51.617708, 24.014219], [52.000733, 23.001154], [55.006803, 22.496948], [55.208341, 22.70833], [55.666659, 22.000001], [54.999982, 19.999994], [52.00001, 19.000003], [49.116672, 18.616668], [48.183344, 18.166669], [47.466695, 17.116682], [47.000005, 16.949999], [46.749994, 17.283338], [46.366659, 17.233315], [45.399999, 17.333335], [45.216651, 17.433329], [44.062613, 17.410359], [43.791519, 17.319977], [43.380794, 17.579987], [43.115798, 17.08844], [43.218375, 16.66689], [42.779332, 16.347891], [42.649573, 16.774635], [42.347989, 17.075806], [42.270888, 17.474722], [41.754382, 17.833046], [41.221391, 18.6716], [40.939341, 19.486485], [40.247652, 20.174635], [39.801685, 20.338862], [39.139399, 21.291905], [39.023696, 21.986875], [39.066329, 22.579656], [38.492772, 23.688451], [38.02386, 24.078686], [37.483635, 24.285495], [37.154818, 24.858483], [37.209491, 25.084542], [36.931627, 25.602959], [36.639604, 25.826228], [36.249137, 26.570136], [35.640182, 27.37652], [35.130187, 28.063352], [34.632336, 28.058546], [34.787779, 28.607427], [34.83222, 28.957483], [34.956037, 29.356555]]]}}, {"type": "Feature", "properties": {"NAME": "EGYPT"}, "geometry": {"type": "Polygon", "coordinates": [[[36.86623, 22.0], [32.9, 22.0], [29.02, 22.0], [25.0, 22.0], [25.0, 25.6825], [25.0, 29.238655], [24.70007, 30.04419], [24.95762, 30.6616], [24.80287, 31.08929], [25.16482, 31.56915], [26.49533, 31.58568], [27.45762, 31.32126], [28.45048, 31.02577], [28.91353, 30.87005], [29.68342, 31.18686], [30.09503, 31.4734], [30.97693, 31.55586], [31.68796, 31.4296], [31.96041, 30.9336], [32.19247, 31.26034], [32.99392, 31.02407], [33.7734, 30.96746], [34.265435, 31.219357], [34.26544, 31.21936], [34.823243, 29.761081], [34.9226, 29.50133], [34.64174, 29.09942], [34.42655, 28.34399], [34.15451, 27.8233], [33.92136, 27.6487], [33.58811, 27.97136], [33.13676, 28.41765], [32.42323, 29.85108], [32.32046, 29.76043], [32.73482, 28.70523], [33.34876, 27.69989], [34.10455, 26.14227], [34.47387, 25.59856], [34.79507, 25.03375], [35.69241, 23.92671], [35.49372, 23.75237], [35.52598, 23.10244], [36.69069, 22.20485], [36.86623, 22.0]]]}}]}