{
  "type": "FeatureCollection",
  "features": [
    {
      "type": "Feature",
      "properties": {
        "NAME": "Indonesia",
        "ISO_A2": "ID"
      },
      "geometry": {
        "type": "Polygon",
        "coordinates": []
      }
    },
    {
      "type": "Feature", 
      "properties": {
        "NAME": "United Kingdom",
        "ISO_A2": "GB"
      },
      "geometry": {
        "type": "Polygon",
        "coordinates": []
      }
    },
    {
      "type": "Feature",
      "properties": {
        "NAME": "Germany", 
        "ISO_A2": "DE"
      },
      "geometry": {
        "type": "Polygon",
        "coordinates": []
      }
    },
    {
      "type": "Feature",
      "properties": {
        "NAME": "Japan",
        "ISO_A2": "JP"
      },
      "geometry": {
        "type": "Polygon",
        "coordinates": []
      }
    }
  ]
}
